{
  "type": "FeatureCollection",
  "features": [
    {
      "type": "Feature",
      "properties": {
        "norad_id": 59600,
        "name": "GSAT0227 (GALILEO 30)",
        "group": "galileo",
        "lat": -36.4064258011354,
        "lon": -42.362820957469026,
        "alt_km": 23230.60724737255,
        "timestamp": "2025-12-03T10:52:57.716314+00:00",
        "meta_object_name": "GSAT0227 (GALILEO 30)",
        "meta_object_id": "2024-079C",
        "meta_epoch": "2025-11-30T03:38:35.461248",
        "meta_mean_motion": 1.70474636,
        "meta_eccentricity": 0.00034867,
        "meta_inclination": 54.9888,
        "meta_ra_of_asc_node": 106.6465,
        "meta_arg_of_pericenter": 113.1426,
        "meta_mean_anomaly": 246.8704,
        "meta_ephemeris_type": 0,
        "meta_classification_type": "U",
        "meta_norad_cat_id": 59600,
        "meta_element_set_no": 999,
        "meta_rev_at_epoch": 997,
        "meta_bstar": 0,
        "meta_mean_motion_dot": 4.8e-07,
        "meta_mean_motion_ddot": 0,
        "tle_line1": "1 59600U 24079C   25334.15179932  .00000048  00000+0  00000+0 0  9996",
        "tle_line2": "2 59600  54.9888 106.6465 0003486 113.1426 246.8704  1.70474636  9975"
      },
      "geometry": {
        "type": "Point",
        "coordinates": [
          -42.362820957469026,
          -36.4064258011354
        ]
      }
    },
    {
      "type": "Feature",
      "properties": {
        "norad_id": 61182,
        "name": "GSAT0232 (GALILEO 32)",
        "group": "galileo",
        "lat": 45.84521140678285,
        "lon": -87.7439352682633,
        "alt_km": 23222.84475081356,
        "timestamp": "2025-12-03T10:52:57.716326+00:00",
        "meta_object_name": "GSAT0232 (GALILEO 32)",
        "meta_object_id": "2024-167A",
        "meta_epoch": "2025-11-29T15:16:36.414048",
        "meta_mean_motion": 1.70473184,
        "meta_eccentricity": 0.00022439,
        "meta_inclination": 55.2459,
        "meta_ra_of_asc_node": 226.7912,
        "meta_arg_of_pericenter": 216.1557,
        "meta_mean_anomaly": 22.2275,
        "meta_ephemeris_type": 0,
        "meta_classification_type": "U",
        "meta_norad_cat_id": 61182,
        "meta_element_set_no": 999,
        "meta_rev_at_epoch": 747,
        "meta_bstar": 0,
        "meta_mean_motion_dot": 2.7e-07,
        "meta_mean_motion_ddot": 0,
        "tle_line1": "1 61182U 24167A   25333.63653257  .00000027  00000+0  00000+0 0  9998",
        "tle_line2": "2 61182  55.2459 226.7912 0002243 216.1557  22.2275  1.70473184  7470"
      },
      "geometry": {
        "type": "Point",
        "coordinates": [
          -87.7439352682633,
          45.84521140678285
        ]
      }
    },
    {
      "type": "Feature",
      "properties": {
        "norad_id": 61183,
        "name": "GSAT0226 (GALILEO 31)",
        "group": "galileo",
        "lat": 5.321335463180566,
        "lon": 42.99160969022192,
        "alt_km": 23220.113208609706,
        "timestamp": "2025-12-03T10:52:57.716338+00:00",
        "meta_object_name": "GSAT0226 (GALILEO 31)",
        "meta_object_id": "2024-167B",
        "meta_epoch": "2025-11-26T08:32:06.516672",
        "meta_mean_motion": 1.70473481,
        "meta_eccentricity": 6.079e-05,
        "meta_inclination": 55.246,
        "meta_ra_of_asc_node": 226.8867,
        "meta_arg_of_pericenter": 154.246,
        "meta_mean_anomaly": 343.2327,
        "meta_ephemeris_type": 0,
        "meta_classification_type": "U",
        "meta_norad_cat_id": 61183,
        "meta_element_set_no": 999,
        "meta_rev_at_epoch": 739,
        "meta_bstar": 0,
        "meta_mean_motion_dot": 3e-07,
        "meta_mean_motion_ddot": 0,
        "tle_line1": "1 61183U 24167B   25330.35563098  .00000030  00000+0  00000+0 0  9992",
        "tle_line2": "2 61183  55.2460 226.8867 0000607 154.2460 343.2327  1.70473481  7395"
      },
      "geometry": {
        "type": "Point",
        "coordinates": [
          42.99160969022192,
          5.321335463180566
        ]
      }
    }
  ]
}